SL-14 R/B               
1 21423U 91042B   26037.02030946  .00000497  00000+0  59867-4 0  9998
2 21423  82.4900 249.8869 0016774 350.3519   9.7370 14.81799343848380
ERS-1                   
1 21574U 91050A   26037.00007659  .00000466  00000+0  16398-3 0  9994
2 21574  98.7896  54.4378 0030977 297.2004  62.6026 14.39423069811170
ARIANE 40 R/B           
1 21610U 91050F   26037.12636759  .00000420  00000+0  13825-3 0  9999
2 21610  98.2078  90.5371 0003662 151.6461 208.4929 14.42869890814448
INTERCOSMOS 25          
1 21819U 91086A   26037.20133261  .00001072  00000+0  20776-3 0  9995
2 21819  82.6087 329.0361 1486652 184.7696 173.7737 12.11913022492878
SL-8 R/B                
1 21876U 92008B   26037.18363833  .00000071  00000+0  57699-4 0  9993
2 21876  82.9268 291.2160 0033708 221.2607 303.9106 13.75969506705086
SL-8 R/B                
1 21938U 92020B   26036.99366729  .00000137  00000+0  12653-3 0  9994
2 21938  82.9325 177.2878 0029471  28.6953 110.6269 13.75544599696772
USA 81                  
1 21949U 92023A   26037.29255873  .00000296  00000+0  10237-3 0  9992
2 21949  85.0120 149.5445 0002569 105.5448 254.6028 14.32356123 90291
COSMOS 2219             
1 22219U 92076A   26037.11310232 -.00000152  00000+0 -54746-4 0  9990
2 22219  71.0586  84.0822 0020447 250.6467 109.2445 14.14077010713917
SL-16 R/B               
1 22220U 92076B   26037.08869684  .00000223  00000+0  13513-3 0  9991
2 22220  70.9981 254.9417 0011675 152.3831  15.0982 14.16854801717355
COSMOS 2221             
1 22236U 92080A   26037.20347846  .00002860  00000+0  25202-3 0  9995
2 22236  82.5060 309.2348 0013062 303.2076  56.7893 14.96073088776082
SL-16 R/B               
1 22285U 92093B   26037.07923119 -.00000181  00000+0 -68524-4 0  9992
2 22285  71.0202  70.6273 0005085 326.6801  33.4001 14.15441420708688
COSMOS 2228             
1 22286U 92094A   26037.24041143  .00003075  00000+0  26379-3 0  9995
2 22286  82.5157 267.4258 0019271  50.6106 309.6820 14.97045860771357
